start=new Date('2022-09-27T00:00:00.000Z').valueOf();
sats=[{"RCS_SIZE":"LARGE","INCLINATION":"53.2163","OBJECT_NAME":"STARLINK-4301","MEAN_ELEMENT_THEORY":"SGP4","REF_FRAME":"TEME","OBJECT_ID":"2022-076M","ELEMENT_SET_NO":"999","ARG_OF_PERICENTER":"35.3356","SITE":"AFETR","GP_ID":"213602447","BSTAR":"-0.00150490000000","ECCENTRICITY":"0.00021760","EPHEMERIS_TYPE":"0","MEAN_MOTION":"15.08835135","MEAN_MOTION_DDOT":"0.0000000000000","NORAD_CAT_ID":"52997","FILE":"3584555","COUNTRY_CODE":"US","CLASSIFICATION_TYPE":"U","CENTER_NAME":"EARTH","PERIAPSIS":"538.255","TLE_LINE1":"1 52997U 22076M   22269.91667824 -.00024156  00000-0 -15049-2 0  9994","RA_OF_ASC_NODE":"349.4622","APOAPSIS":"541.266","MEAN_MOTION_DOT":"-0.00024156","PERIOD":"95.438","TIME_SYSTEM":"UTC","TLE_LINE2":"2 52997  53.2163 349.4622 0002176  35.3356 261.4052 15.08835135  1308","REV_AT_EPOCH":"130","EPOCH":"2022-09-26T22:00:00.999936","DECAY_DATE":null,"SEMIMAJOR_AXIS":"6917.895","OBJECT_TYPE":"PAYLOAD","MEAN_ANOMALY":"261.4052","LAUNCH_DATE":"2022-07-07"},{"MEAN_MOTION_DOT":"-0.00003798","PERIOD":"95.438","TIME_SYSTEM":"UTC","TLE_LINE2":"2 52998  53.2175 349.4546 0001471  51.9080 199.6504 15.08838480  1302","REV_AT_EPOCH":"130","EPOCH":"2022-09-26T22:00:00.999936","DECAY_DATE":null,"SEMIMAJOR_AXIS":"6917.885","OBJECT_TYPE":"PAYLOAD","MEAN_ANOMALY":"199.6504","LAUNCH_DATE":"2022-07-07","COUNTRY_CODE":"US","CLASSIFICATION_TYPE":"U","CENTER_NAME":"EARTH","PERIAPSIS":"538.732","TLE_LINE1":"1 52998U 22076N   22269.91667824 -.00003798  00000-0 -22065-3 0  9991","RA_OF_ASC_NODE":"349.4546","APOAPSIS":"540.768","BSTAR":"-0.00022065000000","ECCENTRICITY":"0.00014710","EPHEMERIS_TYPE":"0","MEAN_MOTION_DDOT":"0.0000000000000","MEAN_MOTION":"15.08838480","NORAD_CAT_ID":"52998","FILE":"3584555","RCS_SIZE":"LARGE","INCLINATION":"53.2175","OBJECT_NAME":"STARLINK-4254","MEAN_ELEMENT_THEORY":"SGP4","REF_FRAME":"TEME","OBJECT_ID":"2022-076N","ELEMENT_SET_NO":"999","ARG_OF_PERICENTER":"51.9080","SITE":"AFETR","GP_ID":"213601955"},{"APOAPSIS":"540.819","RA_OF_ASC_NODE":"349.4515","TLE_LINE1":"1 52999U 22076P   22269.91667824 -.00019694  00000-0 -12225-2 0  9990","PERIAPSIS":"538.638","CENTER_NAME":"EARTH","CLASSIFICATION_TYPE":"U","COUNTRY_CODE":"US","LAUNCH_DATE":"2022-07-07","MEAN_ANOMALY":"277.1984","OBJECT_TYPE":"PAYLOAD","SEMIMAJOR_AXIS":"6917.863","DECAY_DATE":null,"REV_AT_EPOCH":"130","EPOCH":"2022-09-26T22:00:00.999936","TLE_LINE2":"2 52999  53.2172 349.4515 0001576  59.5591 277.1984 15.08845531  1302","TIME_SYSTEM":"UTC","PERIOD":"95.437","MEAN_MOTION_DOT":"-0.00019694","GP_ID":"213602285","SITE":"AFETR","ARG_OF_PERICENTER":"59.5591","ELEMENT_SET_NO":"999","OBJECT_ID":"2022-076P","REF_FRAME":"TEME","MEAN_ELEMENT_THEORY":"SGP4","OBJECT_NAME":"STARLINK-4217","RCS_SIZE":"LARGE","INCLINATION":"53.2172","NORAD_CAT_ID":"52999","FILE":"3584555","MEAN_MOTION_DDOT":"0.0000000000000","MEAN_MOTION":"15.08845531","EPHEMERIS_TYPE":"0","ECCENTRICITY":"0.00015760","BSTAR":"-0.00122250000000"},{"BSTAR":"-0.00427650000000","ECCENTRICITY":"0.00019810","EPHEMERIS_TYPE":"0","MEAN_MOTION":"15.08859511","MEAN_MOTION_DDOT":"0.0000000000000","FILE":"3584555","NORAD_CAT_ID":"53000","RCS_SIZE":"LARGE","INCLINATION":"53.2182","OBJECT_NAME":"STARLINK-4194","MEAN_ELEMENT_THEORY":"SGP4","REF_FRAME":"TEME","OBJECT_ID":"2022-076Q","ELEMENT_SET_NO":"999","ARG_OF_PERICENTER":"31.6989","SITE":"AFETR","GP_ID":"213601704","MEAN_MOTION_DOT":"-0.00067747","PERIOD":"95.436","TIME_SYSTEM":"UTC","TLE_LINE2":"2 53000  53.2182 349.4659 0001981  31.6989 225.0686 15.08859511  1302","REV_AT_EPOCH":"130","EPOCH":"2022-09-26T22:00:00.999936","DECAY_DATE":null,"SEMIMAJOR_AXIS":"6917.821","OBJECT_TYPE":"PAYLOAD","MEAN_ANOMALY":"225.0686","LAUNCH_DATE":"2022-07-07","COUNTRY_CODE":"US","CLASSIFICATION_TYPE":"U","CENTER_NAME":"EARTH","PERIAPSIS":"538.315","TLE_LINE1":"1 53000U 22076Q   22269.91667824 -.00067747  00000-0 -42765-2 0  9998","RA_OF_ASC_NODE":"349.4659","APOAPSIS":"541.056"},{"PERIAPSIS":"538.687","TLE_LINE1":"1 53001U 22076R   22269.91667824 -.00021803  00000-0 -13562-2 0  9995","CENTER_NAME":"EARTH","COUNTRY_CODE":"US","CLASSIFICATION_TYPE":"U","RA_OF_ASC_NODE":"349.4475","APOAPSIS":"540.843","SEMIMAJOR_AXIS":"6917.900","REV_AT_EPOCH":"130","EPOCH":"2022-09-26T22:00:00.999936","DECAY_DATE":null,"TIME_SYSTEM":"UTC","TLE_LINE2":"2 53001  53.2170 349.4475 0001558  63.5363 293.2246 15.08833506  1301","MEAN_MOTION_DOT":"-0.00021803","PERIOD":"95.438","MEAN_ANOMALY":"293.2246","LAUNCH_DATE":"2022-07-07","OBJECT_TYPE":"PAYLOAD","REF_FRAME":"TEME","MEAN_ELEMENT_THEORY":"SGP4","OBJECT_NAME":"STARLINK-4190","RCS_SIZE":"LARGE","INCLINATION":"53.2170","SITE":"AFETR","GP_ID":"213602690","ELEMENT_SET_NO":"999","ARG_OF_PERICENTER":"63.5363","OBJECT_ID":"2022-076R","ECCENTRICITY":"0.00015580","BSTAR":"-0.00135620000000","FILE":"3584555","NORAD_CAT_ID":"53001","EPHEMERIS_TYPE":"0","MEAN_MOTION_DDOT":"0.0000000000000","MEAN_MOTION":"15.08833506"},{"BSTAR":"-0.00148140000000","ECCENTRICITY":"0.00019490","EPHEMERIS_TYPE":"0","MEAN_MOTION":"15.08841831","MEAN_MOTION_DDOT":"0.0000000000000","NORAD_CAT_ID":"53002","FILE":"3584555","INCLINATION":"53.2178","RCS_SIZE":"LARGE","OBJECT_NAME":"STARLINK-4121","MEAN_ELEMENT_THEORY":"SGP4","REF_FRAME":"TEME","OBJECT_ID":"2022-076S","ELEMENT_SET_NO":"999","ARG_OF_PERICENTER":"37.6134","SITE":"AFETR","GP_ID":"213601540","MEAN_MOTION_DOT":"-0.00023789","PERIOD":"95.437","TIME_SYSTEM":"UTC","TLE_LINE2":"2 53002  53.2178 349.4644 0001949  37.6134 239.1728 15.08841831  1304","EPOCH":"2022-09-26T22:00:00.999936","REV_AT_EPOCH":"130","DECAY_DATE":null,"SEMIMAJOR_AXIS":"6917.875","OBJECT_TYPE":"PAYLOAD","MEAN_ANOMALY":"239.1728","LAUNCH_DATE":"2022-07-07","COUNTRY_CODE":"US","CLASSIFICATION_TYPE":"U","CENTER_NAME":"EARTH","PERIAPSIS":"538.391","TLE_LINE1":"1 53002U 22076S   22269.91667824 -.00023789  00000-0 -14814-2 0  9992","RA_OF_ASC_NODE":"349.4644","APOAPSIS":"541.088"},{"OBJECT_TYPE":"PAYLOAD","MEAN_ANOMALY":"336.2547","LAUNCH_DATE":"2022-07-07","TIME_SYSTEM":"UTC","TLE_LINE2":"2 53003  53.2173 349.4489 0001497  60.5263 336.2547 15.08887375 13138","MEAN_MOTION_DOT":"-0.00112218","PERIOD":"95.435","SEMIMAJOR_AXIS":"6917.736","REV_AT_EPOCH":"1313","EPOCH":"2022-09-26T22:00:00.999936","DECAY_DATE":null,"RA_OF_ASC_NODE":"349.4489","APOAPSIS":"540.636","COUNTRY_CODE":"US","CLASSIFICATION_TYPE":"U","PERIAPSIS":"538.565","TLE_LINE1":"1 53003U 22076T   22269.91667824 -.00112218  00000-0 -71347-2 0  9993","CENTER_NAME":"EARTH","EPHEMERIS_TYPE":"0","MEAN_MOTION":"15.08887375","MEAN_MOTION_DDOT":"0.0000000000000","NORAD_CAT_ID":"53003","FILE":"3584388","ECCENTRICITY":"0.00014970","BSTAR":"-0.00713470000000","ELEMENT_SET_NO":"999","ARG_OF_PERICENTER":"60.5263","OBJECT_ID":"2022-076T","SITE":"AFETR","GP_ID":"213573390","OBJECT_NAME":"STARLINK-4255","RCS_SIZE":"LARGE","INCLINATION":"53.2173","REF_FRAME":"TEME","MEAN_ELEMENT_THEORY":"SGP4"},{"CLASSIFICATION_TYPE":"U","COUNTRY_CODE":"US","CENTER_NAME":"EARTH","TLE_LINE1":"1 53004U 22076U   22269.91667824 -.00021305  00000-0 -13241-2 0  9999","PERIAPSIS":"538.687","APOAPSIS":"540.740","RA_OF_ASC_NODE":"349.4548","PERIOD":"95.437","MEAN_MOTION_DOT":"-0.00021305","TLE_LINE2":"2 53004  53.2172 349.4548 0001484  60.2345 256.5139 15.08850533  1301","TIME_SYSTEM":"UTC","DECAY_DATE":null,"REV_AT_EPOCH":"130","EPOCH":"2022-09-26T22:00:00.999936","SEMIMAJOR_AXIS":"6917.848","OBJECT_TYPE":"PAYLOAD","LAUNCH_DATE":"2022-07-07","MEAN_ANOMALY":"256.5139","RCS_SIZE":"LARGE","INCLINATION":"53.2172","OBJECT_NAME":"STARLINK-4253","MEAN_ELEMENT_THEORY":"SGP4","REF_FRAME":"TEME","OBJECT_ID":"2022-076U","ARG_OF_PERICENTER":"60.2345","ELEMENT_SET_NO":"999","GP_ID":"213602121","SITE":"AFETR","BSTAR":"-0.00132410000000","ECCENTRICITY":"0.00014840","MEAN_MOTION":"15.08850533","MEAN_MOTION_DDOT":"0.0000000000000","EPHEMERIS_TYPE":"0","NORAD_CAT_ID":"53004","FILE":"3584555"},{"CLASSIFICATION_TYPE":"U","COUNTRY_CODE":"US","CENTER_NAME":"EARTH","TLE_LINE1":"1 53005U 22076V   22269.91667824 -.00086911  00000-0 -55036-2 0  9992","PERIAPSIS":"538.481","APOAPSIS":"540.782","RA_OF_ASC_NODE":"349.4494","PERIOD":"95.435","MEAN_MOTION_DOT":"-0.00086911","TLE_LINE2":"2 53005  53.2176 349.4494 0001663  54.9561   1.8108 15.08877231  1306","TIME_SYSTEM":"UTC","DECAY_DATE":null,"REV_AT_EPOCH":"130","EPOCH":"2022-09-26T22:00:00.999936","SEMIMAJOR_AXIS":"6917.767","OBJECT_TYPE":"PAYLOAD","LAUNCH_DATE":"2022-07-07","MEAN_ANOMALY":"1.8108","RCS_SIZE":"LARGE","INCLINATION":"53.2176","OBJECT_NAME":"STARLINK-4288","MEAN_ELEMENT_THEORY":"SGP4","REF_FRAME":"TEME","OBJECT_ID":"2022-076V","ARG_OF_PERICENTER":"54.9561","ELEMENT_SET_NO":"999","GP_ID":"213602448","SITE":"AFETR","BSTAR":"-0.00550360000000","ECCENTRICITY":"0.00016630","MEAN_MOTION_DDOT":"0.0000000000000","MEAN_MOTION":"15.08877231","EPHEMERIS_TYPE":"0","NORAD_CAT_ID":"53005","FILE":"3584555"},{"RA_OF_ASC_NODE":"349.4498","APOAPSIS":"540.766","COUNTRY_CODE":"US","CLASSIFICATION_TYPE":"U","PERIAPSIS":"538.517","TLE_LINE1":"1 53006U 22076W   22269.91667824 -.00066954  00000-0 -42242-2 0  9993","CENTER_NAME":"EARTH","OBJECT_TYPE":"PAYLOAD","MEAN_ANOMALY":"329.2938","LAUNCH_DATE":"2022-07-07","TIME_SYSTEM":"UTC","TLE_LINE2":"2 53006  53.2174 349.4498 0001626  47.4700 329.2938 15.08874016  1306","MEAN_MOTION_DOT":"-0.00066954","PERIOD":"95.435","SEMIMAJOR_AXIS":"6917.776","EPOCH":"2022-09-26T22:00:00.999936","REV_AT_EPOCH":"130","DECAY_DATE":null,"ELEMENT_SET_NO":"999","ARG_OF_PERICENTER":"47.4700","OBJECT_ID":"2022-076W","SITE":"AFETR","GP_ID":"213601956","OBJECT_NAME":"STARLINK-4290","INCLINATION":"53.2174","RCS_SIZE":"LARGE","REF_FRAME":"TEME","MEAN_ELEMENT_THEORY":"SGP4","EPHEMERIS_TYPE":"0","MEAN_MOTION":"15.08874016","MEAN_MOTION_DDOT":"0.0000000000000","FILE":"3584555","NORAD_CAT_ID":"53006","ECCENTRICITY":"0.00016260","BSTAR":"-0.00422420000000"}];
